STARLINK-1862           
1 47149U 20088AD  21003.91667824  .00052534  00000-0  57655-3 0  9992
2 47149  53.0540 157.3021 0001604  59.7005  84.2928 15.62722402  1779
STARLINK-1863           
1 47150U 20088AE  21003.91667824  .00052113  00000-0  57177-3 0  9996
2 47150  53.0571 157.2691 0001173  44.9991 114.8274 15.62733610  6994
STARLINK-1864           
1 47151U 20088AF  21003.91667824  .00052041  00000-0  57149-3 0  9996
2 47151  53.0541 157.3024 0001462  57.8899  87.3604 15.62711163  6994
STARLINK-1866           
1 47152U 20088AG  21003.91667824  .00049365  00000-0  54176-3 0  9999
2 47152  53.0544 157.2987 0001479  54.2108  94.2190 15.62749643  6998
STARLINK-1867           
1 47153U 20088AH  21003.91667824 -.00975158  00000-0 -18165-1 0  9996
2 47153  53.0537 158.2357 0001301  55.6226 333.1534 15.50804170  1775
STARLINK-1868           
1 47154U 20088AJ  21003.91667824  .00052038  00000-0  57172-3 0  9991
2 47154  53.0547 157.2593 0001360  51.1548 113.8510 15.62699124  6991
STARLINK-1869           
1 47155U 20088AK  21003.91667824 -.01009129  00000-0 -44385-1 0  9998
2 47155  53.0553 160.1932 0001360  68.2034 346.1925 15.24227068  6957
STARLINK-1870           
1 47156U 20088AL  21003.91667824 -.00039238  00000-0 -42461-3 0  9997
2 47156  53.0549 157.2568 0001411  49.0802 117.1949 15.62761959  6992
STARLINK-1871           
1 47157U 20088AM  21003.91667824  .00053964  00000-0  59211-3 0  9999
2 47157  53.0546 158.0474 0002357  23.6043 116.1456 15.62715937  1778
STARLINK-1873           
1 47158U 20088AN  21003.91667824  .00051165  00000-0  56183-3 0  9996
2 47158  53.0548 157.2617 0001737  60.0124 103.6922 15.62719574  1777
STARLINK-1874           
1 47159U 20088AP  21003.91667824  .00054412  00000-0  59675-3 0  9994
2 47159  53.0559 157.2921 0001508  56.8871  92.1815 15.62725274  1773
STARLINK-1875           
1 47160U 20088AQ  21003.91667824 -.00052133  00000-0 -56662-3 0  9999
2 47160  53.0549 157.2617 0001300  46.8331 117.4995 15.62778622  6990
STARLINK-1876           
1 47161U 20088AR  21003.91667824  .00051976  00000-0  57017-3 0  9997
2 47161  53.0544 157.2658 0001284  46.4638 110.2538 15.62738934  6994
STARLINK-1877           
1 47162U 20088AS  21003.91667824 -.00046391  00000-0 -50332-3 0  9998
2 47162  53.0540 157.3061 0001340  52.3779  90.3467 15.62772757  6995
STARLINK-1878           
1 47163U 20088AT  21003.91667824 -.01000636  00000-0 -42206-1 0  9991
2 47163  53.0558 160.1762 0001524  71.3422  68.4294 15.25591280  1768
STARLINK-1879           
1 47164U 20088AU  21003.91667824  .00053146  00000-0  58289-3 0  9993
2 47164  53.0545 157.2649 0001486  54.1364 105.1263 15.62734356  6996
STARLINK-1880           
1 47165U 20088AV  21003.91667824  .00054297  00000-0  59545-3 0  9998
2 47165  53.0558 158.0532 0002491  28.0505 109.8221 15.62726345  1770
STARLINK-1881           
1 47166U 20088AW  21003.91667824  .00042287  00000-0  46586-3 0  9996
2 47166  53.0549 158.0481 0002418  27.2617 109.9849 15.62718692  1771
STARLINK-1884           
1 47167U 20088AX  21003.91667824  .00054268  00000-0  59508-3 0  9997
2 47167  53.0541 157.3061 0001462  58.6800  82.1404 15.62730334  7042
STARLINK-1885           
1 47168U 20088AY  21003.91667824  .00054305  00000-0  59525-3 0  9999
2 47168  53.0540 157.3050 0001566  54.0844  87.3286 15.62740285  1778
STARLINK-1886           
1 47169U 20088AZ  21003.91667824 -.00005336  00000-0 -52487-4 0  9993
2 47169  53.0540 158.0472 0002147  26.9823 111.5477 15.62740232  1770
STARLINK-1887           
1 47170U 20088BA  21003.91667824  .00053640  00000-0  58820-3 0  9990
2 47170  53.0537 157.3008 0001477  52.0830  91.2865 15.62735311  1775
STARLINK-1888           
1 47171U 20088BB  21003.91667824  .00053985  00000-0  59266-3 0  9998
2 47171  53.0547 157.2758 0001398  47.1207 107.7189 15.62703071  7038
STARLINK-1889           
1 47172U 20088BC  21003.91667824 -.01005589  00000-0 -18815-1 0  9992
2 47172  53.0535 158.2380 0001182  59.1030 325.1320 15.50760721  7020
STARLINK-1890           
1 47173U 20088BD  21003.91667824 -.00028637  00000-0 -30769-3 0  9995
2 47173  53.0543 157.2839 0001434  52.3548  97.3398 15.62779632  1770
STARLINK-1891           
1 47174U 20088BE  21003.91667824  .00053899  00000-0  59070-3 0  9998
2 47174  53.0550 158.0468 0002420  27.5437 111.5549 15.62746282  7029
STARLINK-1895           
1 47175U 20088BF  21003.91667824  .00052536  00000-0  57605-3 0  9998
2 47175  53.0567 157.2750 0001406  54.7121 103.2540 15.62745807  1775
STARLINK-1900           
1 47176U 20088BG  21003.91667824 -.00006490  00000-0 -65135-4 0  9997
2 47176  53.0548 157.2643 0001431  46.1456 112.5072 15.62740013  1777
STARLINK-1907           
1 47177U 20088BH  21003.91667824  .00052697  00000-0  57812-3 0  9998
2 47177  53.0544 157.2672 0001418  49.6976 107.6567 15.62731076  7034
STARLINK-1912           
1 47178U 20088BJ  21003.91667824  .00053172  00000-0  58281-3 0  9999
2 47178  53.0542 157.3013 0001157  46.7608  99.1005 15.62750470  6741
STARLINK-1913           
1 47179U 20088BK  21003.91667824 -.00991149  00000-0 -42980-1 0  9994
2 47179  53.0544 160.1490 0001503  57.8630  24.1152 15.24647744  6959
STARLINK-1914           
1 47180U 20088BL  21003.91667824 -.00989484  00000-0 -42618-1 0  9993
2 47180  53.0536 160.1468 0001477  67.1052  28.6053 15.24868184  6951
STARLINK-1927           
1 47181U 20088BM  21003.91667824  .00053615  00000-0  58801-3 0  9993
2 47181  53.0542 157.2833 0001351  54.3949  97.2444 15.62731632  1776
LUCAS (JDRS-1)          
1 47202U 20089A   21003.84525983 -.00000225  00000-0  00000-0 0  9994
2 47202   0.0154  60.5726 0002821 227.7171 210.4436  1.00270309   454
FALCON EYE 2            
1 47226U 20090A   21003.87283890  .00000228  00000-0  33055-4 0  9995
2 47226  97.8639  81.1844 0001426  88.1694 271.9664 14.84892290  4871
GONETS-M 20             
1 47227U 20091A   21003.85880521  .00000023  00000-0  10000-3 0  9996
2 47227  82.5052  99.5532 0013413 205.6223 154.4192 12.41516139  3957
GONETS-M 21             
1 47228U 20091B   20366.29848993  .00000024  00000-0  10000-3 0  9994
2 47228  82.5009 101.7177 0014830 220.9935 139.0710 12.42855712  3505
GONETS-M 22             
1 47229U 20091C   21003.01725227  .00020243  00000-0  14407+0 0  9994
2 47229  82.5046 100.0115 0016871 197.6523 162.2689 12.43795148  3837
COSMOS 2548             
1 47230U 20091D   21003.82938334  .00000032  00000-0  15833-3 0  9992
2 47230  82.5004  99.5180 0015238 212.3769 147.6377 12.42950298  3941
GAOFEN 14               
1 47231U 20092A   21003.83015137  .00001284  00000-0  53353-4 0  9992
2 47231  97.4390  81.4599 0012100 155.0941 339.0673 15.25581714  4369
DRAGON CRS-21           
1 47233U 20093A   21003.59612193  .00000872  00000-0  23763-4 0  9997
2 47233  51.6464  76.8469 0000860 181.2428 322.1422 15.49252596263080
GECAM-A                 
1 47234U 20094A   21003.93486781  .00000397  00000-0  25737-4 0  9994
2 47234  28.9979 219.6878 0012576 187.2451 172.7963 14.90667235  3704
GECAM-B                 
1 47235U 20094B   21003.86619979  .00000407  00000-0  26635-4 0  9994
2 47235  28.9978 220.1010 0013137 185.9811 174.0630 14.90769136  3695
SXM-7                   
1 47240U 20096A   21002.27659568  .00000002  00000-0  00000-0 0  9999
2 47240   0.0474 300.8092 0004528  51.0138  89.6080  1.00407001   355
IPM 2 & BREEZE-M R/B    
1 47242U 20097A   21002.65045485 -.00000088  00000-0  00000-0 0  9996
2 47242   0.0779 176.1863 0081301 156.8952  26.4930  0.95257662   281
STRIX-ALPHA             
1 47253U 20098A   21003.81322683  .00002652  00000-0  12347-3 0  9994
2 47253  97.3747 260.9998 0012605 228.1985 218.8123 15.20727499  2948
CMS-01                  
1 47256U 20099A   21003.88360184 -.00000103  00000-0  00000-0 0  9993
2 47256   0.0654 275.3810 0002121  21.8254 202.3145  1.00268791   242
ONEWEB-0102             
1 47258U 20100A   21003.91667824  .00063634  00000-0  15509-2 0  9992
2 47258  87.3999  33.8456 0006325 213.7347 351.8658 15.40643187  1810
ONEWEB-0109             
1 47259U 20100B   21003.91667824 -.01076891  00000-0 -37032-1 0  9999
2 47259  87.3906  33.8677 0006337 207.1083 173.5540 15.32880484  1768
ONEWEB-0110             
1 47260U 20100C   21003.91667824  .00064324  00000-0  15734-2 0  9992
2 47260  87.3970  33.8435 0005945 211.1288 348.0721 15.40533249  1841
ONEWEB-0111             
1 47261U 20100D   21003.91667824 -.01106632  00000-0 -37520-1 0  9991
2 47261  87.3996  33.8687 0006094 216.9991 173.3977 15.33407377  1878
ONEWEB-0114             
1 47262U 20100E   21003.91667824 -.01114886  00000-0 -38294-1 0  9991
2 47262  87.3972  33.8743 0007344 197.1950 165.4737 15.33002008  1766
ONEWEB-0117             
1 47263U 20100F   21003.91667824 -.01103643  00000-0 -34290-1 0  9993
2 47263  87.3981  33.8600 0008300 224.4542 207.6636 15.36106737  1813
ONEWEB-0118             
1 47264U 20100G   21003.91667824  .00059436  00000-0  14092-2 0  9990
2 47264  87.3973  33.8326 0009876 208.4619  44.8787 15.41462660  1775
ONEWEB-0119             
1 47265U 20100H   21003.91667824 -.01105362  00000-0 -31400-1 0  9995
2 47265  87.3959  33.8501 0009786 205.8879 274.6426 15.38845851  1815
ONEWEB-0120             
1 47266U 20100J   21003.91667824  .00062831  00000-0  15247-2 0  9998
2 47266  87.3981  33.8425 0006817 216.1988 357.0272 15.40774228  1811
ONEWEB-0121             
1 47267U 20100K   21003.91667824 -.01071995  00000-0 -32681-1 0  9993
2 47267  87.4005  33.8614 0009529 217.3661 236.4489 15.36598605  1878
ONEWEB-0122             
1 47268U 20100L   21003.91667824 -.01078459  00000-0 -37934-1 0  9992
2 47268  87.4007  33.8776 0006534 203.8541 164.9491 15.32163495  1790
ONEWEB-0123             
1 47269U 20100M   21003.91667824  .00065439  00000-0  16098-2 0  9993
2 47269  87.3989  33.8468 0005607 206.5163 343.7479 15.40357848  1819
